ONEWEB-0616             
1 55157U 23004T   23225.39088019  .00000010  00000+0 -65523-5 0  9991
2 55157  88.1098 210.7669 0009982 243.2838 116.7281 13.32073731 30850
ONEWEB-0617             
1 55158U 23004U   23224.75080833  .00000033  00000+0  57939-4 0  9992
2 55158  87.8514 227.5708 0002335  70.3298 289.8082 13.11410612 29639
ONEWEB-0618             
1 55159U 23004V   23225.37565581 -.00002223  00000+0 -92997-3 0  9997
2 55159  86.9114 202.6644 0012540 194.9788 165.1035 14.26563203 31319
ONEWEB-0619             
1 55160U 23004W   23224.92270993  .00000075  00000+0  13005-3 0  9993
2 55160  87.9585 212.3442 0010583 262.8235  97.1701 13.31599425 30688
ONEWEB-0620             
1 55161U 23004X   23225.43326636 -.00000298  00000+0 -87818-3 0  9999
2 55161  87.8531 227.4273 0002493  71.6723 288.4676 13.11419182 29680
ONEWEB-0621             
1 55162U 23004Y   23224.86315269 -.00000002  00000+0 -27946-4 0  9996
2 55162  87.7015 227.6801 0008801 294.9553  65.0677 13.41786926 29570
ONEWEB-0622             
1 55163U 23004Z   23225.77131853 -.00000313  00000+0 -91985-3 0  9991
2 55163  87.8712 227.3688 0002920  62.4489 297.6935 13.11422056 29701
ONEWEB-0623             
1 55164U 23004AA  23224.70095061  .00000013  00000+0 -33236-6 0  9998
2 55164  87.9679 212.4580 0002088 133.3264 226.8050 13.31023368 30658
